H1 CPF 01  gfz 2022 12 27 13  8612 terrasarx 
H2 0702601  6201 31698    2022 12 27 12 59 42 2023 01 01 00 00 42   120 1 1  0 0 0
H9
10 0 59941  43182.000000  0     837358.997  -2784442.216   6234437.287
10 0 59941  43302.000000  0     757454.258  -3599788.200   5813960.681
10 0 59941  43422.000000  0     650620.516  -4350645.320   5291246.942
10 0 59941  43542.000000  0     519965.016  -5023430.078   4675450.557
10 0 59941  43662.000000  0     369238.614  -5605972.789   3977372.446
10 0 59941  43782.000000  0     202744.177  -6087748.332   3209274.546
10 0 59941  43902.000000  0      25230.807  -6460076.949   2384665.320
10 0 59941  44022.000000  0    -158223.830  -6716289.845   1518060.012
10 0 59941  44142.000000  0    -342339.894  -6851857.614    624721.931
10 0 59941  44262.000000  0    -521768.071  -6864477.535   -279614.890
10 0 59941  44382.000000  0    -691224.500  -6754113.435  -1179033.016
10 0 59941  44502.000000  0    -845623.850  -6522989.105  -2057720.589
10 0 59941  44622.000000  0    -980207.786  -6175537.575  -2900256.002
10 0 59941  44742.000000  0   -1090666.013  -5718307.320  -3691883.890
10 0 59941  44862.000000  0   -1173246.533  -5159826.915  -4418776.011
10 0 59941  44982.000000  0   -1224852.174  -4510432.680  -5068270.381
10 0 59941  45102.000000  0   -1243121.767  -3782065.955  -5629085.404
10 0 59941  45222.000000  0   -1226494.173  -2988044.511  -6091507.052
10 0 59941  45342.000000  0   -1174254.101  -2142812.727  -6447546.754
10 0 59941  45462.000000  0   -1086559.290  -1261675.915  -6691067.676
10 0 59941  45582.000000  0    -964449.093   -360524.721  -6817879.787
10 0 59941  45702.000000  0    -809834.065    544447.223  -6825803.943
10 0 59941  45822.000000  0    -625466.058   1437027.139  -6714704.285
10 0 59941  45942.000000  0    -414890.617   2301265.857  -6486490.217
10 0 59941  46062.000000  0    -182382.046   3121755.815  -6145088.094
10 0 59941  46182.000000  0      67139.526   3883902.571  -5696382.201
10 0 59941  46302.000000  0     328207.223   4574183.634  -5148122.620
10 0 59941  46422.000000  0     594920.342   5180390.948  -4509803.154
10 0 59941  46542.000000  0     861070.106   5691854.307  -3792507.983
10 0 59941  46662.000000  0    1120275.958   6099638.961  -3008727.949
10 0 59941  46782.000000  0    1366129.294   6396713.482  -2172149.569
10 0 59941  46902.000000  0    1592341.804   6578083.917  -1297418.681
10 0 59941  47022.000000  0    1792894.941   6640889.533   -399882.357
10 0 59941  47142.000000  0    1962186.362   6584456.016    504685.758
10 0 59941  47262.000000  0    2095168.961   6410304.893   1400369.630
10 0 59941  47382.000000  0    2187479.784   6122119.489   2271398.750
10 0 59941  47502.000000  0    2235555.210   5725667.469   3102433.751
10 0 59941  47622.000000  0    2236729.822   5228682.767   3878844.054
10 0 59941  47742.000000  0    2189315.303   4640708.584   4586971.972
10 0 59941  47862.000000  0    2092657.891   3972904.111   5214377.353
10 0 59941  47982.000000  0    1947172.670   3237821.374   5750053.280
10 0 59941  48102.000000  0    1754356.290   2449162.988   6184614.629
10 0 59941  48222.000000  0    1516776.539   1621520.904   6510458.435
10 0 59941  48342.000000  0    1238038.846    770101.232   6721890.868
10 0 59941  48462.000000  0     922731.082    -89556.815   6815219.492
10 0 59941  48582.000000  0     576347.935   -941862.978   6788814.489
10 0 59941  48702.000000  0     205194.927  -1771458.971   6643136.590
10 0 59941  48822.000000  0    -183726.528  -2563495.106   6380729.367
10 0 59941  48942.000000  0    -582850.775  -3303897.181   6006176.875
10 0 59941  49062.000000  0    -984192.689  -3979617.259   5526026.080
10 0 59941  49182.000000  0   -1379504.244  -4578865.389   4948679.430
10 0 59941  49302.000000  0   -1760442.760  -5091322.071   4284256.606
10 0 59941  49422.000000  0   -2118746.245  -5508325.987   3544422.297
10 0 59941  49542.000000  0   -2446411.493  -5823029.770   2742182.360
10 0 59941  49662.000000  0   -2735870.444  -6030519.558   1891653.970
10 0 59941  49782.000000  0   -2980160.763  -6127897.598   1007813.766
10 0 59941  49902.000000  0   -3173086.547  -6114325.113    106227.975
10 0 59941  50022.000000  0   -3309364.928  -5991023.770   -797229.711
10 0 59941  50142.000000  0   -3384754.933  -5761235.445  -1686666.727
10 0 59941  50262.000000  0   -3396165.222  -5430140.794  -2546459.850
10 0 59941  50382.000000  0   -3341738.028  -5004739.246  -3361536.518
10 0 59941  50502.000000  0   -3220906.694  -4493693.676  -4117642.735
10 0 59941  50622.000000  0   -3034426.146  -3907145.441  -4801591.358
10 0 59941  50742.000000  0   -2784376.825  -3256505.194  -5401487.469
10 0 59941  50862.000000  0   -2474142.632  -2554224.127  -5906927.448
10 0 59941  50982.000000  0   -2108363.365  -1813551.335  -6309169.641
10 0 59941  51102.000000  0   -1692862.143  -1048281.820  -6601274.804
10 0 59941  51222.000000  0   -1234550.626   -272500.380  -6778213.840
10 0 59941  51342.000000  0    -741314.715    499673.327  -6836943.946
10 0 59941  51462.000000  0    -221880.933   1254335.129  -6776455.280
10 0 59941  51582.000000  0     314334.056   1978040.112  -6597786.017
10 0 59941  51702.000000  0     857388.786   2658036.229  -6304008.309
10 0 59941  51822.000000  0    1396997.970   3282486.202  -5900182.096
10 0 59941  51942.000000  0    1922722.884   3840672.721  -5393276.002
10 0 59941  52062.000000  0    2424170.045   4323183.800  -4792058.236
10 0 59941  52182.000000  0    2891195.018   4722076.787  -4106956.548
10 0 59941  52302.000000  0    3314107.067   5031016.897  -3349887.068
10 0 59941  52422.000000  0    3683871.118   5245386.562  -2534055.022
10 0 59941  52542.000000  0    3992302.670   5362362.554  -1673728.164
10 0 59941  52662.000000  0    4232249.391   5380958.422   -783987.863
10 0 59941  52782.000000  0    4397755.524   5302031.340    119538.870
10 0 59941  52902.000000  0    4484204.567   5128250.562   1020960.507
10 0 59941  53022.000000  0    4488434.657   4864028.815   1904407.827
10 0 59941  53142.000000  0    4408826.790   4515421.217   2754320.837
10 0 59941  53262.000000  0    4245361.514   4089989.376   3555733.262
10 0 59941  53382.000000  0    3999640.527   3596635.580   4294542.288
10 0 59941  53502.000000  0    3674877.003   3045412.644   4957759.214
10 0 59941  53622.000000  0    3275853.546   2447315.072   5533740.703
10 0 59941  53742.000000  0    2808845.477   1814053.643   6012390.004
10 0 59941  53862.000000  0    2281518.240   1157822.632   6385328.231
10 0 59941  53982.000000  0    1702797.642    491061.973   6646034.811
10 0 59941  54102.000000  0    1082715.723   -173778.175   6789955.139
10 0 59941  54222.000000  0     432235.250   -824468.995   6814576.813
10 0 59941  54342.000000  0    -236944.740  -1449228.413   6719470.733
10 0 59941  54462.000000  0    -912599.439  -2036934.112   6506297.583
10 0 59941  54582.000000  0   -1582200.960  -2577321.585   6178779.200
10 0 59941  54702.000000  0   -2233148.057  -3061163.225   5742637.260
10 0 59941  54822.000000  0   -2853002.754  -3480428.531   5205501.467
10 0 59941  54942.000000  0   -3429731.927  -3828422.259   4576783.120
10 0 59941  55062.000000  0   -3951945.462  -4099895.388   3867513.973
10 0 59941  55182.000000  0   -4409125.009  -4291127.834   3090155.444
10 0 59941  55302.000000  0   -4791840.023  -4399981.502   2258381.271
10 0 59941  55422.000000  0   -5091947.151  -4425922.378   1386835.041
10 0 59941  55542.000000  0   -5302766.110  -4370008.940    490866.890
10 0 59941  55662.000000  0   -5419227.984  -4234847.993   -413744.122
10 0 59941  55782.000000  0   -5437992.021  -4024518.930  -1311076.871
10 0 59941  55902.000000  0   -5357527.151  -3744467.542  -2185358.468
10 0 59941  56022.000000  0   -5178155.272  -3401371.952  -3021249.182
10 0 59941  56142.000000  0   -4902057.311  -3002986.373  -3804115.703
10 0 59941  56262.000000  0   -4533242.954  -2557966.286  -4520288.084
10 0 59941  56382.000000  0   -4077484.621  -2075679.618  -5157295.944
10 0 59941  56502.000000  0   -3542218.010  -1566008.807  -5704079.375
10 0 59941  56622.000000  0   -2936412.538  -1039147.900  -6151171.816
10 0 59941  56742.000000  0   -2270414.817   -505399.522  -6490852.962
10 0 59941  56862.000000  0   -1555767.724     25024.029  -6717270.513
10 0 59941  56982.000000  0    -805009.928    542191.636  -6826529.142
10 0 59941  57102.000000  0     -31459.924   1036634.109  -6816750.101
10 0 59941  57222.000000  0     751014.259   1499512.932  -6688099.577
10 0 59941  57342.000000  0    1528237.061   1922773.903  -6442788.563
10 0 59941  57462.000000  0    2285977.359   2299285.678  -6085039.192
10 0 59941  57582.000000  0    3010204.838   2622959.284  -5621019.691
10 0 59941  57702.000000  0    3687346.469   2888846.943  -5058747.307
10 0 59941  57822.000000  0    4304541.044   3093219.836  -4407962.433
10 0 59941  57942.000000  0    4849887.741   3233622.861  -3679970.585
10 0 59941  58062.000000  0    5312681.599   3308903.810  -2887454.011
10 0 59941  58182.000000  0    5683630.846   3319217.682  -2044257.220
10 0 59941  58302.000000  0    5955052.636   3266004.715  -1165146.912
10 0 59941  58422.000000  0    6121039.362   3151940.857   -265551.411
10 0 59941  58542.000000  0    6177592.319   2980862.761    638715.049
10 0 59941  58662.000000  0    6122718.210   2757667.452   1531737.641
10 0 59941  58782.000000  0    5956485.285   2488191.988   2397789.131
10 0 59941  58902.000000  0    5681038.726   2179073.946   3221616.065
10 0 59941  59022.000000  0    5300572.655   1837595.844   3988715.432
10 0 59941  59142.000000  0    4821260.523   1471518.860   4685595.272
10 0 59941  59262.000000  0    4251146.916   1088909.677   5300012.407
10 0 59941  59382.000000  0    3600005.196    697964.927   5821187.779
10 0 59941  59502.000000  0    2879159.320    306836.878   6239992.227
10 0 59941  59622.000000  0    2101279.853    -76534.111   6549098.804
99
